[{"OBJECT_NAME":"STARLINK-31662","OBJECT_ID":"2024-076W","EPOCH":"2026-03-09T05:55:38.668512","MEAN_MOTION":15.27527147,"ECCENTRICITY":0.00013429,"INCLINATION":43.001,"RA_OF_ASC_NODE":11.6107,"ARG_OF_PERICENTER":243.6709,"MEAN_ANOMALY":116.4005,"EPHEMERIS_TYPE":0,"CLASSIFICATION_TYPE":"U","NORAD_CAT_ID":59584,"ELEMENT_SET_NO":999,"REV_AT_EPOCH":10643,"BSTAR":0.00029563837,"MEAN_MOTION_DOT":7.869e-5,"MEAN_MOTION_DDOT":0},{"OBJECT_NAME":"CZ-4B R\/B","OBJECT_ID":"2004-035C","EPOCH":"2026-03-09T23:23:31.358400","MEAN_MOTION":15.2906998,"ECCENTRICITY":0.00309852,"INCLINATION":97.3501,"RA_OF_ASC_NODE":103.2135,"ARG_OF_PERICENTER":330.5139,"MEAN_ANOMALY":29.4353,"EPHEMERIS_TYPE":0,"CLASSIFICATION_TYPE":"U","NORAD_CAT_ID":28415,"ELEMENT_SET_NO":999,"REV_AT_EPOCH":17995,"BSTAR":0.00034109099,"MEAN_MOTION_DOT":9.691e-5,"MEAN_MOTION_DDOT":0}]
